[{"OBJECT_NAME":"STARLINK-31801","OBJECT_ID":"2024-082S","EPOCH":"2025-08-13T03:38:35.950272","MEAN_MOTION":15.27573526,"ECCENTRICITY":0.0001142,"INCLINATION":43.0024,"RA_OF_ASC_NODE":237.9571,"ARG_OF_PERICENTER":263.9715,"MEAN_ANOMALY":96.1007,"EPHEMERIS_TYPE":0,"CLASSIFICATION_TYPE":"U","NORAD_CAT_ID":59647,"ELEMENT_SET_NO":999,"REV_AT_EPOCH":7296,"BSTAR":7.5024e-5,"MEAN_MOTION_DOT":1.803e-5,"MEAN_MOTION_DDOT":0},{"OBJECT_NAME":"STARLINK-31790","OBJECT_ID":"2024-082T","EPOCH":"2025-08-12T16:00:01.999584","MEAN_MOTION":15.77804039,"ECCENTRICITY":0.0020242,"INCLINATION":42.9887,"RA_OF_ASC_NODE":166.1202,"ARG_OF_PERICENTER":186.9812,"MEAN_ANOMALY":189.0663,"EPHEMERIS_TYPE":0,"CLASSIFICATION_TYPE":"U","NORAD_CAT_ID":59648,"ELEMENT_SET_NO":999,"REV_AT_EPOCH":7367,"BSTAR":0.0030947,"MEAN_MOTION_DOT":0.0058101,"MEAN_MOTION_DDOT":0},{"OBJECT_NAME":"STARLINK-31787","OBJECT_ID":"2024-082V","EPOCH":"2025-08-13T07:32:57.585696","MEAN_MOTION":15.27578517,"ECCENTRICITY":0.0001418,"INCLINATION":43.0015,"RA_OF_ASC_NODE":236.6011,"ARG_OF_PERICENTER":270.1506,"MEAN_ANOMALY":89.9183,"EPHEMERIS_TYPE":0,"CLASSIFICATION_TYPE":"U","NORAD_CAT_ID":59650,"ELEMENT_SET_NO":999,"REV_AT_EPOCH":7314,"BSTAR":9.3705e-5,"MEAN_MOTION_DOT":2.317e-5,"MEAN_MOTION_DDOT":0},{"OBJECT_NAME":"STARLINK-31277","OBJECT_ID":"2024-082W","EPOCH":"2025-08-13T07:44:03.631200","MEAN_MOTION":15.2757774,"ECCENTRICITY":0.0001349,"INCLINATION":43.0011,"RA_OF_ASC_NODE":236.6587,"ARG_OF_PERICENTER":270.3775,"MEAN_ANOMALY":89.6922,"EPHEMERIS_TYPE":0,"CLASSIFICATION_TYPE":"U","NORAD_CAT_ID":59651,"ELEMENT_SET_NO":999,"REV_AT_EPOCH":7314,"BSTAR":7.4142e-5,"MEAN_MOTION_DOT":1.778e-5,"MEAN_MOTION_DDOT":0},{"OBJECT_NAME":"STARLINK-31799","OBJECT_ID":"2024-082X","EPOCH":"2025-08-13T08:37:44.490144","MEAN_MOTION":15.27584466,"ECCENTRICITY":0.0001334,"INCLINATION":43.0008,"RA_OF_ASC_NODE":225.6693,"ARG_OF_PERICENTER":273.8495,"MEAN_ANOMALY":86.2204,"EPHEMERIS_TYPE":0,"CLASSIFICATION_TYPE":"U","NORAD_CAT_ID":59652,"ELEMENT_SET_NO":999,"REV_AT_EPOCH":7312,"BSTAR":0.00013145,"MEAN_MOTION_DOT":3.357e-5,"MEAN_MOTION_DDOT":0},{"OBJECT_NAME":"STARLINK-31764","OBJECT_ID":"2024-082Y","EPOCH":"2025-08-13T07:12:36.156672","MEAN_MOTION":15.27588352,"ECCENTRICITY":0.0001464,"INCLINATION":43.0019,"RA_OF_ASC_NODE":236.4975,"ARG_OF_PERICENTER":267.843,"MEAN_ANOMALY":92.2254,"EPHEMERIS_TYPE":0,"CLASSIFICATION_TYPE":"U","NORAD_CAT_ID":59653,"ELEMENT_SET_NO":999,"REV_AT_EPOCH":7314,"BSTAR":8.7493e-5,"MEAN_MOTION_DOT":2.147e-5,"MEAN_MOTION_DDOT":0},{"OBJECT_NAME":"STARLINK-31589","OBJECT_ID":"2024-084A","EPOCH":"2025-08-13T02:20:09.122784","MEAN_MOTION":15.2755966,"ECCENTRICITY":0.0001239,"INCLINATION":43.0027,"RA_OF_ASC_NODE":139.6495,"ARG_OF_PERICENTER":301.6922,"MEAN_ANOMALY":58.3809,"EPHEMERIS_TYPE":0,"CLASSIFICATION_TYPE":"U","NORAD_CAT_ID":59654,"ELEMENT_SET_NO":999,"REV_AT_EPOCH":7249,"BSTAR":7.6612e-6,"MEAN_MOTION_DOT":-5.1e-7,"MEAN_MOTION_DDOT":0},{"OBJECT_NAME":"STARLINK-31665","OBJECT_ID":"2024-084B","EPOCH":"2025-08-13T10:22:42.224160","MEAN_MOTION":15.27567804,"ECCENTRICITY":0.0001136,"INCLINATION":43.0022,"RA_OF_ASC_NODE":134.4024,"ARG_OF_PERICENTER":285.1261,"MEAN_ANOMALY":74.9465,"EPHEMERIS_TYPE":0,"CLASSIFICATION_TYPE":"U","NORAD_CAT_ID":59655,"ELEMENT_SET_NO":999,"REV_AT_EPOCH":7256,"BSTAR":0.00010734,"MEAN_MOTION_DOT":2.692e-5,"MEAN_MOTION_DDOT":0},{"OBJECT_NAME":"STARLINK-31912","OBJECT_ID":"2024-084C","EPOCH":"2025-08-13T10:51:36.458784","MEAN_MOTION":15.27577575,"ECCENTRICITY":7.56e-5,"INCLINATION":43.0019,"RA_OF_ASC_NODE":138.0108,"ARG_OF_PERICENTER":335.4991,"MEAN_ANOMALY":24.5824,"EPHEMERIS_TYPE":0,"CLASSIFICATION_TYPE":"U","NORAD_CAT_ID":59656,"ELEMENT_SET_NO":999,"REV_AT_EPOCH":7252,"BSTAR":5.0376e-5,"MEAN_MOTION_DOT":1.124e-5,"MEAN_MOTION_DDOT":0},{"OBJECT_NAME":"STARLINK-31904","OBJECT_ID":"2024-084D","EPOCH":"2025-08-13T10:36:48.091392","MEAN_MOTION":15.27589143,"ECCENTRICITY":9.43e-5,"INCLINATION":43.0005,"RA_OF_ASC_NODE":137.9331,"ARG_OF_PERICENTER":262.7635,"MEAN_ANOMALY":97.3109,"EPHEMERIS_TYPE":0,"CLASSIFICATION_TYPE":"U","NORAD_CAT_ID":59657,"ELEMENT_SET_NO":999,"REV_AT_EPOCH":7252,"BSTAR":0.00016952,"MEAN_MOTION_DOT":4.407e-5,"MEAN_MOTION_DDOT":0},{"OBJECT_NAME":"STARLINK-31858","OBJECT_ID":"2024-084E","EPOCH":"2025-08-13T03:43:09.212736","MEAN_MOTION":15.27585366,"ECCENTRICITY":0.0001361,"INCLINATION":43.0037,"RA_OF_ASC_NODE":139.2176,"ARG_OF_PERICENTER":253.9752,"MEAN_ANOMALY":106.095,"EPHEMERIS_TYPE":0,"CLASSIFICATION_TYPE":"U","NORAD_CAT_ID":59658,"ELEMENT_SET_NO":999,"REV_AT_EPOCH":7248,"BSTAR":-2.2056e-5,"MEAN_MOTION_DOT":-8.69e-6,"MEAN_MOTION_DDOT":0},{"OBJECT_NAME":"STARLINK-31881","OBJECT_ID":"2024-084F","EPOCH":"2025-08-13T03:58:39.261216","MEAN_MOTION":15.27591089,"ECCENTRICITY":0.0002382,"INCLINATION":42.9991,"RA_OF_ASC_NODE":135.8347,"ARG_OF_PERICENTER":238.7965,"MEAN_ANOMALY":121.2654,"EPHEMERIS_TYPE":0,"CLASSIFICATION_TYPE":"U","NORAD_CAT_ID":59659,"ELEMENT_SET_NO":999,"REV_AT_EPOCH":7249,"BSTAR":0.00019344,"MEAN_MOTION_DOT":5.066e-5,"MEAN_MOTION_DDOT":0},{"OBJECT_NAME":"STARLINK-31885","OBJECT_ID":"2024-084G","EPOCH":"2025-08-13T10:33:48.255840","MEAN_MOTION":15.27570192,"ECCENTRICITY":8.71e-5,"INCLINATION":42.999,"RA_OF_ASC_NODE":134.4577,"ARG_OF_PERICENTER":283.3195,"MEAN_ANOMALY":76.7559,"EPHEMERIS_TYPE":0,"CLASSIFICATION_TYPE":"U","NORAD_CAT_ID":59660,"ELEMENT_SET_NO":999,"REV_AT_EPOCH":7256,"BSTAR":3.9974e-5,"MEAN_MOTION_DOT":8.38e-6,"MEAN_MOTION_DDOT":0},{"OBJECT_NAME":"STARLINK-31880","OBJECT_ID":"2024-084H","EPOCH":"2025-08-13T02:22:40.298592","MEAN_MOTION":15.27582089,"ECCENTRICITY":0.0001257,"INCLINATION":42.9995,"RA_OF_ASC_NODE":136.2002,"ARG_OF_PERICENTER":297.0292,"MEAN_ANOMALY":63.0431,"EPHEMERIS_TYPE":0,"CLASSIFICATION_TYPE":"U","NORAD_CAT_ID":59661,"ELEMENT_SET_NO":999,"REV_AT_EPOCH":7251,"BSTAR":0.00015998,"MEAN_MOTION_DOT":4.143e-5,"MEAN_MOTION_DDOT":0},{"OBJECT_NAME":"STARLINK-31886","OBJECT_ID":"2024-084J","EPOCH":"2025-08-13T10:46:03.813600","MEAN_MOTION":15.27566402,"ECCENTRICITY":9.15e-5,"INCLINATION":43.0007,"RA_OF_ASC_NODE":137.9793,"ARG_OF_PERICENTER":299.0308,"MEAN_ANOMALY":61.0452,"EPHEMERIS_TYPE":0,"CLASSIFICATION_TYPE":"U","NORAD_CAT_ID":59662,"ELEMENT_SET_NO":999,"REV_AT_EPOCH":7252,"BSTAR":0.0001278,"MEAN_MOTION_DOT":3.255e-5,"MEAN_MOTION_DDOT":0},{"OBJECT_NAME":"STARLINK-31909","OBJECT_ID":"2024-084K","EPOCH":"2025-08-13T02:21:13.915008","MEAN_MOTION":15.28124037,"ECCENTRICITY":0.0001857,"INCLINATION":43.0004,"RA_OF_ASC_NODE":139.6982,"ARG_OF_PERICENTER":261.11,"MEAN_ANOMALY":98.9541,"EPHEMERIS_TYPE":0,"CLASSIFICATION_TYPE":"U","NORAD_CAT_ID":59663,"ELEMENT_SET_NO":999,"REV_AT_EPOCH":7247,"BSTAR":0.0011458,"MEAN_MOTION_DOT":0.00031934,"MEAN_MOTION_DDOT":0},{"OBJECT_NAME":"STARLINK-31910","OBJECT_ID":"2024-084L","EPOCH":"2025-08-13T11:39:29.962080","MEAN_MOTION":15.27574136,"ECCENTRICITY":7.9e-5,"INCLINATION":43.0027,"RA_OF_ASC_NODE":137.3949,"ARG_OF_PERICENTER":286.9136,"MEAN_ANOMALY":73.1629,"EPHEMERIS_TYPE":0,"CLASSIFICATION_TYPE":"U","NORAD_CAT_ID":59664,"ELEMENT_SET_NO":999,"REV_AT_EPOCH":7253,"BSTAR":9.3683e-6,"MEAN_MOTION_DOT":-4.0e-8,"MEAN_MOTION_DDOT":0},{"OBJECT_NAME":"STARLINK-31902","OBJECT_ID":"2024-084N","EPOCH":"2025-08-13T10:57:08.598528","MEAN_MOTION":15.27584003,"ECCENTRICITY":0.0001683,"INCLINATION":42.9948,"RA_OF_ASC_NODE":138.037,"ARG_OF_PERICENTER":287.6924,"MEAN_ANOMALY":72.3744,"EPHEMERIS_TYPE":0,"CLASSIFICATION_TYPE":"U","NORAD_CAT_ID":59666,"ELEMENT_SET_NO":999,"REV_AT_EPOCH":7252,"BSTAR":2.0848e-5,"MEAN_MOTION_DOT":3.12e-6,"MEAN_MOTION_DDOT":0},{"OBJECT_NAME":"STARLINK-31913","OBJECT_ID":"2024-084P","EPOCH":"2025-08-13T03:51:16.062048","MEAN_MOTION":15.27575626,"ECCENTRICITY":0.0001037,"INCLINATION":43.0017,"RA_OF_ASC_NODE":135.7991,"ARG_OF_PERICENTER":303.8436,"MEAN_ANOMALY":56.2317,"EPHEMERIS_TYPE":0,"CLASSIFICATION_TYPE":"U","NORAD_CAT_ID":59667,"ELEMENT_SET_NO":999,"REV_AT_EPOCH":7252,"BSTAR":6.9078e-5,"MEAN_MOTION_DOT":1.639e-5,"MEAN_MOTION_DDOT":0},{"OBJECT_NAME":"STARLINK-31866","OBJECT_ID":"2024-084Q","EPOCH":"2025-08-13T11:13:09.666336","MEAN_MOTION":15.27567877,"ECCENTRICITY":0.000109,"INCLINATION":43.0037,"RA_OF_ASC_NODE":130.3221,"ARG_OF_PERICENTER":259.2281,"MEAN_ANOMALY":100.8448,"EPHEMERIS_TYPE":0,"CLASSIFICATION_TYPE":"U","NORAD_CAT_ID":59668,"ELEMENT_SET_NO":999,"REV_AT_EPOCH":7261,"BSTAR":-9.9766e-5,"MEAN_MOTION_DOT":-3.005e-5,"MEAN_MOTION_DDOT":0},{"OBJECT_NAME":"STARLINK-31917","OBJECT_ID":"2024-084R","EPOCH":"2025-08-13T04:14:36.935232","MEAN_MOTION":15.27576897,"ECCENTRICITY":0.0001034,"INCLINATION":43.0014,"RA_OF_ASC_NODE":139.3767,"ARG_OF_PERICENTER":294.909,"MEAN_ANOMALY":65.1654,"EPHEMERIS_TYPE":0,"CLASSIFICATION_TYPE":"U","NORAD_CAT_ID":59669,"ELEMENT_SET_NO":999,"REV_AT_EPOCH":7248,"BSTAR":0.00016085,"MEAN_MOTION_DOT":4.166e-5,"MEAN_MOTION_DDOT":0},{"OBJECT_NAME":"STARLINK-31860","OBJECT_ID":"2024-084S","EPOCH":"2025-08-13T10:28:14.543616","MEAN_MOTION":15.27582952,"ECCENTRICITY":9.82e-5,"INCLINATION":42.9966,"RA_OF_ASC_NODE":134.4246,"ARG_OF_PERICENTER":296.3464,"MEAN_ANOMALY":63.7287,"EPHEMERIS_TYPE":0,"CLASSIFICATION_TYPE":"U","NORAD_CAT_ID":59670,"ELEMENT_SET_NO":999,"REV_AT_EPOCH":7254,"BSTAR":5.1713e-5,"MEAN_MOTION_DOT":1.162e-5,"MEAN_MOTION_DDOT":0},{"OBJECT_NAME":"STARLINK-31854","OBJECT_ID":"2024-084T","EPOCH":"2025-08-13T09:25:03.052416","MEAN_MOTION":15.27578117,"ECCENTRICITY":0.0001383,"INCLINATION":43.0052,"RA_OF_ASC_NODE":105.1183,"ARG_OF_PERICENTER":270.9545,"MEAN_ANOMALY":89.1148,"EPHEMERIS_TYPE":0,"CLASSIFICATION_TYPE":"U","NORAD_CAT_ID":59671,"ELEMENT_SET_NO":999,"REV_AT_EPOCH":7287,"BSTAR":-1.0618e-5,"MEAN_MOTION_DOT":-5.54e-6,"MEAN_MOTION_DDOT":0}]
